[{"OBJECT_NAME":"STARLINK-3789","OBJECT_ID":"2022-041Y","EPOCH":"2026-03-09T19:07:03.355104","MEAN_MOTION":15.08836964,"ECCENTRICITY":0.00012911,"INCLINATION":53.2155,"RA_OF_ASC_NODE":108.6408,"ARG_OF_PERICENTER":85.474,"MEAN_ANOMALY":274.64,"EPHEMERIS_TYPE":0,"CLASSIFICATION_TYPE":"U","NORAD_CAT_ID":52283,"ELEMENT_SET_NO":999,"REV_AT_EPOCH":21438,"BSTAR":-6.707416e-6,"MEAN_MOTION_DOT":-3.95e-6,"MEAN_MOTION_DDOT":0},{"OBJECT_NAME":"SEDNA-2","OBJECT_ID":"2025-009DQ","EPOCH":"2026-03-09T19:10:28.282944","MEAN_MOTION":15.10492622,"ECCENTRICITY":0.0010309,"INCLINATION":97.4615,"RA_OF_ASC_NODE":144.8075,"ARG_OF_PERICENTER":53.026,"MEAN_ANOMALY":307.1912,"EPHEMERIS_TYPE":0,"CLASSIFICATION_TYPE":"U","NORAD_CAT_ID":63153,"ELEMENT_SET_NO":999,"REV_AT_EPOCH":6311,"BSTAR":0.00049393403,"MEAN_MOTION_DOT":8.085e-5,"MEAN_MOTION_DDOT":0}]
